[{"OBJECT_NAME":"IRIDIUM 145","OBJECT_ID":"2018-030E","EPOCH":"2026-03-09T23:33:38.409120","MEAN_MOTION":14.34213927,"ECCENTRICITY":0.00019039,"INCLINATION":86.4013,"RA_OF_ASC_NODE":331.8973,"ARG_OF_PERICENTER":94.1139,"MEAN_ANOMALY":266.0275,"EPHEMERIS_TYPE":0,"CLASSIFICATION_TYPE":"U","NORAD_CAT_ID":43253,"ELEMENT_SET_NO":999,"REV_AT_EPOCH":41590,"BSTAR":0.00011521042,"MEAN_MOTION_DOT":3.42e-6,"MEAN_MOTION_DDOT":0},{"OBJECT_NAME":"UNKNOWN","OBJECT_ID":"","EPOCH":"2026-03-06T21:59:38.293152","MEAN_MOTION":14.35278808,"ECCENTRICITY":0.0015579,"INCLINATION":74.032,"RA_OF_ASC_NODE":253.9619,"ARG_OF_PERICENTER":63.4192,"MEAN_ANOMALY":296.8555,"EPHEMERIS_TYPE":0,"CLASSIFICATION_TYPE":"U","NORAD_CAT_ID":82189,"ELEMENT_SET_NO":999,"REV_AT_EPOCH":64449,"BSTAR":0.00011821,"MEAN_MOTION_DOT":3.13e-6,"MEAN_MOTION_DDOT":0}]
